NORAD_CAT_ID,OBJECT_NAME,OBJECT_TYPE,EPOCH,MEAN_MOTION,ECCENTRICITY,INCLINATION,RA_OF_ASC_NODE,ARG_OF_PERICENTER,MEAN_ANOMALY,BSTAR,MEAN_MOTION_DOT,MEAN_MOTION_DDOT,TLE_LINE0,TLE_LINE1,TLE_LINE2,SEMIMAJOR_AXIS,PERIOD,APOGEE,PERIGEE,DECAYED
53906.0,STARLINK-5054,PAYLOAD,2023-10-02 10:39:20,15.08819531,0.0001567,53.2176,345.7823,87.7646,272.3526,-0.00021734,-3.743e-05,0.0,0 STARLINK-5054,1 53906U 22119W   23275.44398594 -.00003743  00000-0 -21734-3 0  9992,2 53906  53.2176 345.7823 0001567  87.7646 272.3526 15.08819531 57165,6917.943,95.439,540.892,538.724,0.0
53906.0,STARLINK-5054,PAYLOAD,2023-10-02 13:50:06,15.08823867,0.0001683,53.2166,345.1856,77.6321,282.4859,4.5278e-05,4.32e-06,0.0,0 STARLINK-5054,1 53906U 22119W   23275.57646740  .00000432  00000-0  45278-4 0  9995,2 53906  53.2166 345.1856 0001683  77.6321 282.4859 15.08823867 57608,6917.93,95.439,540.959,538.63,0.0
53906.0,STARLINK-5054,PAYLOAD,2023-10-03 12:05:30,15.08881506,0.0001619,53.2162,341.0227,72.8189,287.298,0.0019392,0.00030745,0.0,0 STARLINK-5054,1 53906U 22119W   23276.50381958  .00030745  00000-0  19392-2 0  9992,2 53906  53.2162 341.0227 0001619  72.8189 287.2980 15.08881506 57320,6917.754,95.435,540.739,538.499,0.0
53906.0,STARLINK-5054,PAYLOAD,2023-10-04 10:20:54,15.08856223,0.0001181,53.2166,336.8591,91.7838,268.3289,0.0017129,0.0002709,0.0,0 STARLINK-5054,1 53906U 22119W   23277.43118146  .00027090  00000-0  17129-2 0  9997,2 53906  53.2166 336.8591 0001181  91.7838 268.3289 15.08856223 57460,6917.831,95.437,540.513,538.879,0.0
53906.0,STARLINK-5054,PAYLOAD,2023-10-04 21:28:36,15.08822801,0.0001465,53.2166,334.7767,82.9233,277.1926,0.0030705,0.00048895,0.0,0 STARLINK-5054,1 53906U 22119W   23277.89486498  .00048895  00000-0  30705-2 0  9996,2 53906  53.2166 334.7767 0001465  82.9233 277.1926 15.08822801 57953,6917.933,95.439,540.811,538.784,0.0
53906.0,STARLINK-5054,PAYLOAD,2023-10-05 10:11:41,15.08842409,0.000163,53.2173,332.3965,99.3621,260.7556,0.001045,0.00016383,0.0,0 STARLINK-5054,1 53906U 22119W   23278.42478892  .00016383  00000-0  10450-2 0  9997,2 53906  53.2173 332.3965 0001630  99.3621 260.7556 15.08842409 57618,6917.873,95.437,540.866,538.61,0.0
53906.0,STARLINK-5054,PAYLOAD,2023-10-05 13:22:28,15.08841869,0.0001641,53.2173,331.8009,101.7183,258.3994,0.0014673,0.00023142,0.0,0 STARLINK-5054,1 53906U 22119W   23278.55726965  .00023142  00000-0  14673-2 0  9990,2 53906  53.2173 331.8009 0001641 101.7183 258.3994 15.08841869 58051,6917.875,95.437,540.875,538.604,0.0
53906.0,STARLINK-5054,PAYLOAD,2023-10-05 21:19:23,15.08838365,0.0001424,53.217,330.3158,100.3823,259.733,0.00034201,5.159e-05,0.0,0 STARLINK-5054,1 53906U 22119W   23278.88846985  .00005159  00000-0  34201-3 0  9999,2 53906  53.2170 330.3158 0001424 100.3823 259.7330 15.08838365 58104,6917.885,95.438,540.735,538.765,0.0
53906.0,STARLINK-5054,PAYLOAD,2023-10-06 13:13:15,15.08850755,0.00015,53.2172,327.3421,95.6005,264.5158,0.00062532,9.681e-05,0.0,0 STARLINK-5054,1 53906U 22119W   23279.55086910  .00009681  00000-0  62532-3 0  9990,2 53906  53.2172 327.3421 0001500  95.6005 264.5158 15.08850755 58208,6917.848,95.437,540.75,538.675,0.0
53906.0,STARLINK-5054,PAYLOAD,2023-10-07 08:17:52,15.08845591,0.0001599,53.2169,323.7705,91.8186,268.2989,0.00040697,6.196e-05,0.0,0 STARLINK-5054,1 53906U 22119W   23280.34575133  .00006196  00000-0  40697-3 0  9995,2 53906  53.2169 323.7705 0001599  91.8186 268.2989 15.08845591 57906,6917.863,95.437,540.834,538.622,0.0
53906.0,STARLINK-5054,PAYLOAD,2023-10-07 19:25:34,15.08845486,0.0001647,53.2169,321.6924,78.9469,281.1709,0.00031767,4.772e-05,0.0,0 STARLINK-5054,1 53906U 22119W   23280.80943190  .00004772  00000-0  31767-3 0  9994,2 53906  53.2169 321.6924 0001647  78.9469 281.1709 15.08845486 58391,6917.864,95.437,540.868,538.589,0.0
53906.0,STARLINK-5054,PAYLOAD,2023-10-08 03:22:30,15.08834942,0.0001526,53.2168,320.2056,94.5305,265.5862,-5.4956e-06,-3.75e-06,0.0,0 STARLINK-5054,1 53906U 22119W   23281.14063322 -.00000375  00000-0 -54956-5 0  9996,2 53906  53.2168 320.2056 0001526  94.5305 265.5862 15.08834942 58021,6917.896,95.438,540.817,538.705,0.0
53906.0,STARLINK-5054,PAYLOAD,2023-10-08 09:44:02,15.08852546,0.0001511,53.2163,319.0151,86.4176,273.6989,0.00055398,8.543e-05,0.0,0 STARLINK-5054,1 53906U 22119W   23281.40558928  .00008543  00000-0  55398-3 0  9998,2 53906  53.2163 319.0151 0001511  86.4176 273.6989 15.08852546 58062,6917.842,95.437,540.752,538.662,0.0
53906.0,STARLINK-5054,PAYLOAD,2023-10-08 19:16:21,15.08845399,0.0001525,53.2171,317.2309,82.3622,277.7543,0.00034269,5.171e-05,0.0,0 STARLINK-5054,1 53906U 22119W   23281.80303114  .00005171  00000-0  34269-3 0  9995,2 53906  53.2171 317.2309 0001525  82.3622 277.7543 15.08845399 58544,6917.864,95.437,540.784,538.674,0.0
53906.0,STARLINK-5054,PAYLOAD,2023-10-09 03:13:17,15.08838834,0.0001863,53.2181,315.7474,103.0181,257.1019,7.2704e-05,8.69e-06,0.0,0 STARLINK-5054,1 53906U 22119W   23282.13423404  .00000869  00000-0  72704-4 0  9993,2 53906  53.2181 315.7474 0001863 103.0181 257.1019 15.08838834 58172,6917.884,95.438,541.038,538.46,0.0
53906.0,STARLINK-5054,PAYLOAD,2023-10-09 09:34:50,15.08841078,0.000158,53.2173,314.5591,97.4755,262.6417,0.00012816,1.752e-05,0.0,0 STARLINK-5054,1 53906U 22119W   23282.39919330  .00001752  00000-0  12816-3 0  9998,2 53906  53.2173 314.5591 0001580  97.4755 262.6417 15.08841078 58637,6917.877,95.437,540.835,538.649,0.0
53906.0,STARLINK-5054,PAYLOAD,2023-10-10 11:01:00,15.08851423,0.0001512,53.2162,309.8013,94.6969,265.4196,0.00029401,4.396e-05,0.0,0 STARLINK-5054,1 53906U 22119W   23283.45903034  .00004396  00000-0  29401-3 0  9995,2 53906  53.2162 309.8013 0001512  94.6969 265.4196 15.08851423 58373,6917.845,95.437,540.756,538.664,0.0
53906.0,STARLINK-5054,PAYLOAD,2023-10-10 18:57:55,15.08845525,0.0001626,53.2162,308.3116,80.6381,279.4795,0.00022085,3.229e-05,0.0,0 STARLINK-5054,1 53906U 22119W   23283.79023129  .00003229  00000-0  22085-3 0  9995,2 53906  53.2162 308.3116 0001626  80.6381 279.4795 15.08845525 58848,6917.864,95.437,540.853,538.604,0.0
53906.0,STARLINK-5054,PAYLOAD,2023-10-11 01:19:28,15.08841883,0.0002128,53.2156,307.1252,81.9912,278.1321,0.00017232,2.455e-05,0.0,0 STARLINK-5054,1 53906U 22119W   23284.05519592  .00002455  00000-0  17232-3 0  9997,2 53906  53.2156 307.1252 0002128  81.9912 278.1321 15.08841883 58463,6917.875,95.437,541.212,538.268,0.0
53906.0,STARLINK-5054,PAYLOAD,2023-10-11 10:51:47,15.08838429,0.0001471,53.2155,305.3396,84.6213,275.4947,0.00011231,1.5e-05,0.0,0 STARLINK-5054,1 53906U 22119W   23284.45263687  .00001500  00000-0  11231-3 0  9995,2 53906  53.2155 305.3396 0001471  84.6213 275.4947 15.08838429 58944,6917.885,95.438,540.768,538.733,0.0
53906.0,STARLINK-5054,PAYLOAD,2023-10-12 01:10:16,15.0883783,0.0001495,53.2154,302.6606,93.5221,266.5943,0.00010984,1.46e-05,0.0,0 STARLINK-5054,1 53906U 22119W   23285.04879940  .00001460  00000-0  10984-3 0  9995,2 53906  53.2154 302.6606 0001495  93.5221 266.5943 15.08837830 58617,6917.887,95.438,540.786,538.718,0.0
53906.0,STARLINK-5054,PAYLOAD,2023-10-12 07:31:48,15.08846554,0.0001634,53.2156,301.4724,99.4315,260.6862,0.00022607,3.312e-05,0.0,0 STARLINK-5054,1 53906U 22119W   23285.31375644  .00003312  00000-0  22607-3 0  9990,2 53906  53.2156 301.4724 0001634  99.4315 260.6862 15.08846554 59070,6917.86,95.437,540.856,538.595,0.0
53906.0,STARLINK-5054,PAYLOAD,2023-10-12 18:39:30,15.08841843,0.0001645,53.2169,299.39,90.4901,269.628,0.00026542,3.939e-05,0.0,0 STARLINK-5054,1 53906U 22119W   23285.77744003  .00003939  00000-0  26542-3 0  9996,2 53906  53.2169 299.3900 0001645  90.4901 269.6280 15.08841843 59146,6917.875,95.437,540.878,538.602,0.0
53906.0,STARLINK-5054,PAYLOAD,2023-10-13 04:11:49,15.08841508,0.0001756,53.2165,297.6077,84.1664,275.9528,0.00026606,3.949e-05,0.0,0 STARLINK-5054,1 53906U 22119W   23286.17488210  .00003949  00000-0  26606-3 0  9998,2 53906  53.2165 297.6077 0001756  84.1664 275.9528 15.08841508 58789,6917.876,95.437,540.956,538.526,0.0
53906.0,STARLINK-5054,PAYLOAD,2023-10-13 10:33:22,15.08846102,0.0001785,53.2164,296.4157,93.5466,266.5731,0.00026777,3.977e-05,0.0,0 STARLINK-5054,1 53906U 22119W   23286.43983938  .00003977  00000-0  26777-3 0  9994,2 53906  53.2164 296.4157 0001785  93.5466 266.5731 15.08846102 59249,6917.862,95.437,540.962,538.492,0.0
53906.0,STARLINK-5054,PAYLOAD,2023-10-14 10:24:08,15.08856475,0.00017,53.2155,291.954,94.0529,266.0658,0.00034814,5.259e-05,0.0,0 STARLINK-5054,1 53906U 22119W   23287.43343308  .00005259  00000-0  34814-3 0  9992,2 53906  53.2155 291.9540 0001700  94.0529 266.0658 15.08856475 58974,6917.83,95.437,540.871,538.519,0.0
53906.0,STARLINK-5054,PAYLOAD,2023-10-15 00:42:37,15.08828056,0.0001472,53.2155,289.2779,96.4691,263.6469,-0.00012307,-2.245e-05,0.0,0 STARLINK-5054,1 53906U 22119W   23288.02960533 -.00002245  00000-0 -12307-3 0  9990,2 53906  53.2155 289.2779 0001472  96.4691 263.6469 15.08828056 59068,6917.917,95.438,540.8,538.764,0.0
53906.0,STARLINK-5054,PAYLOAD,2023-10-15 07:04:10,15.08831469,0.0001451,53.2159,288.0899,90.974,269.1419,-4.5155e-05,-1.006e-05,0.0,0 STARLINK-5054,1 53906U 22119W   23288.29456589 -.00001006  00000-0 -45155-4 0  9992,2 53906  53.2159 288.0899 0001451  90.9740 269.1419 15.08831469 59522,6917.906,95.438,540.775,538.768,0.0
53906.0,STARLINK-5054,PAYLOAD,2023-10-15 16:36:29,15.08836479,0.0001387,53.2156,286.3053,89.5681,270.547,7.245e-05,8.65e-06,0.0,0 STARLINK-5054,1 53906U 22119W   23288.69200587  .00000865  00000-0  72450-4 0  9999,2 53906  53.2156 286.3053 0001387  89.5681 270.5470 15.08836479 59167,6917.891,95.438,540.716,538.797,0.0
53906.0,STARLINK-5054,PAYLOAD,2023-10-16 06:54:57,15.08853791,0.0001315,53.2162,283.6311,98.2347,261.8794,0.00092161,0.00014415,0.0,0 STARLINK-5054,1 53906U 22119W   23289.28816588  .00014415  00000-0  92161-3 0  9995,2 53906  53.2162 283.6311 0001315  98.2347 261.8794 15.08853791 59256,6917.838,95.437,540.613,538.794,0.0
